STARLINK-30298          
1 57665U 23124C   26068.62010733 -.00001285  00000+0 -31256-4 0  9993
2 57665  53.1607 207.3888 0001425  95.3928 264.7235 15.30189614143552
STARLINK-36554          
1 67502U 26012K   26067.71268370  .00032833  00000+0  11969-2 0  9992
2 67502  42.9934 319.8184 0000695 339.2059  20.8765 15.27591469  7619
